[{"OBJECT_NAME":"ORBCOMM FM06","OBJECT_ID":"1997-084G","EPOCH":"2026-03-09T15:06:31.906944","MEAN_MOTION":14.47270413,"ECCENTRICITY":0.0001937,"INCLINATION":45.0122,"RA_OF_ASC_NODE":171.8858,"ARG_OF_PERICENTER":196.1809,"MEAN_ANOMALY":301.713,"EPHEMERIS_TYPE":0,"CLASSIFICATION_TYPE":"U","NORAD_CAT_ID":25118,"ELEMENT_SET_NO":999,"REV_AT_EPOCH":47996,"BSTAR":0.00064878,"MEAN_MOTION_DOT":2.251e-5,"MEAN_MOTION_DDOT":0},{"OBJECT_NAME":"UNKNOWN","OBJECT_ID":"","EPOCH":"2026-03-09T09:03:44.483616","MEAN_MOTION":14.47700826,"ECCENTRICITY":0.0002672,"INCLINATION":74.0487,"RA_OF_ASC_NODE":59.1802,"ARG_OF_PERICENTER":231.2476,"MEAN_ANOMALY":128.8445,"EPHEMERIS_TYPE":0,"CLASSIFICATION_TYPE":"U","NORAD_CAT_ID":81499,"ELEMENT_SET_NO":999,"REV_AT_EPOCH":49495,"BSTAR":0.0010119,"MEAN_MOTION_DOT":3.71e-5,"MEAN_MOTION_DDOT":0}]
